$$SOE
2460147.500000000, A.D. 2023-Jul-22 00:00:00.0000, -4.865387402252289E+09, 3.793953201321016E+09, -1.759900109742060E+08,
2460154.500000000, A.D. 2023-Jul-29 00:00:00.0000, -4.867095291438793E+09, 3.791551174488544E+09, -1.764138540724368E+08,
2460161.500000000, A.D. 2023-Aug-05 00:00:00.0000, -4.868802258866128E+09, 3.789148338601341E+09, -1.768376584090583E+08,
2460168.500000000, A.D. 2023-Aug-12 00:00:00.0000, -4.870508306419399E+09, 3.786744692145793E+09, -1.772614237446821E+08,
2460175.500000000, A.D. 2023-Aug-19 00:00:00.0000, -4.872213435679123E+09, 3.784340233119918E+09, -1.776851498701186E+08,
2460182.500000000, A.D. 2023-Aug-26 00:00:00.0000, -4.873917647920465E+09, 3.781934959123369E+09, -1.781088366002913E+08,
2460189.500000000, A.D. 2023-Sep-02 00:00:00.0000, -4.875620944135512E+09, 3.779528867376113E+09, -1.785324837728236E+08,
2460196.500000000, A.D. 2023-Sep-09 00:00:00.0000, -4.877323325041884E+09, 3.777121954624579E+09, -1.789560912579782E+08,
2460203.500000000, A.D. 2023-Sep-16 00:00:00.0000, -4.879024790909320E+09, 3.774714216877272E+09, -1.793796590000913E+08,
2460210.500000000, A.D. 2023-Sep-23 00:00:00.0000, -4.880725340787794E+09, 3.772305649256630E+09, -1.798031871051877E+08,
2460217.500000000, A.D. 2023-Sep-30 00:00:00.0000, -4.882424971476744E+09, 3.769896247157830E+09, -1.802266758462198E+08,
2460224.500000000, A.D. 2023-Oct-07 00:00:00.0000, -4.884123678589124E+09, 3.767486008171761E+09, -1.806501254142857E+08,
2460231.500000000, A.D. 2023-Oct-14 00:00:00.0000, -4.885821458670440E+09, 3.765074931458943E+09, -1.810735357817814E+08,
2460238.500000000, A.D. 2023-Oct-21 00:00:00.0000, -4.887518309144095E+09, 3.762663016177156E+09, -1.814969068424737E+08,
2460245.500000000, A.D. 2023-Oct-28 00:00:00.0000, -4.889214227507450E+09, 3.760250261222871E+09, -1.819202385129068E+08,
2460252.500000000, A.D. 2023-Nov-04 00:00:00.0000, -4.890909211028610E+09, 3.757836665516110E+09, -1.823435307431943E+08,
2460259.500000000, A.D. 2023-Nov-11 00:00:00.0000, -4.892603256766387E+09, 3.755422228228846E+09, -1.827667835022407E+08,
2460266.500000000, A.D. 2023-Nov-18 00:00:00.0000, -4.894296361693913E+09, 3.753006948892648E+09, -1.831899967625332E+08,
2460273.500000000, A.D. 2023-Nov-25 00:00:00.0000, -4.895988522853105E+09, 3.750590827408121E+09, -1.836131704891081E+08,
2460280.500000000, A.D. 2023-Dec-02 00:00:00.0000, -4.897679737511778E+09, 3.748173863944952E+09, -1.840363046360183E+08,
2460287.500000000, A.D. 2023-Dec-09 00:00:00.0000, -4.899370003245594E+09, 3.745756058673636E+09, -1.844593991621377E+08,
2460294.500000000, A.D. 2023-Dec-16 00:00:00.0000, -4.901059317657284E+09, 3.743337411341476E+09, -1.848824540916195E+08,
2460301.500000000, A.D. 2023-Dec-23 00:00:00.0000, -4.902747677384708E+09, 3.740917921380263E+09, -1.853054695948215E+08,
2460308.500000000, A.D. 2023-Dec-30 00:00:00.0000, -4.904435077737973E+09, 3.738497589594931E+09, -1.857284458811474E+08,
2460315.500000000, A.D. 2024-Jan-06 00:00:00.0000, -4.906121514738021E+09, 3.736076419072437E+09, -1.861513829343176E+08,
2460322.500000000, A.D. 2024-Jan-13 00:00:00.0000, -4.907806986384011E+09, 3.733654413503984E+09, -1.865742805289721E+08,
2460329.500000000, A.D. 2024-Jan-20 00:00:00.0000, -4.909491491925880E+09, 3.731231576005157E+09, -1.869971383890123E+08,
2460336.500000000, A.D. 2024-Jan-27 00:00:00.0000, -4.911175031170852E+09, 3.728807909086167E+09, -1.874199562485390E+08,
2460343.500000000, A.D. 2024-Feb-03 00:00:00.0000, -4.912857604252243E+09, 3.726383414823595E+09, -1.878427338538656E+08,
2460350.500000000, A.D. 2024-Feb-10 00:00:00.0000, -4.914539211583235E+09, 3.723958094942504E+09, -1.882654709560425E+08,
2460357.500000000, A.D. 2024-Feb-17 00:00:00.0000, -4.916219853856868E+09, 3.721531950816870E+09, -1.886881673061469E+08,
2460364.500000000, A.D. 2024-Feb-24 00:00:00.0000, -4.917899532056367E+09, 3.719104983403083E+09, -1.891108226555762E+08,
2460371.500000000, A.D. 2024-Mar-02 00:00:00.0000, -4.919578247446418E+09, 3.716677193074037E+09, -1.895334367667882E+08,
2460378.500000000, A.D. 2024-Mar-09 00:00:00.0000, -4.921256001406600E+09, 3.714248579290929E+09, -1.899560094524603E+08,
2460385.500000000, A.D. 2024-Mar-16 00:00:00.0000, -4.922932794711661E+09, 3.711819140310043E+09, -1.903785406632307E+08,
2460392.500000000, A.D. 2024-Mar-23 00:00:00.0000, -4.924608626362225E+09, 3.709388874033547E+09, -1.908010305239553E+08,
2460399.500000000, A.D. 2024-Mar-30 00:00:00.0000, -4.926283494207070E+09, 3.706957779977544E+09, -1.912234791151009E+08,
2460406.500000000, A.D. 2024-Apr-06 00:00:00.0000, -4.927957397100936E+09, 3.704525858989716E+09, -1.916458862979870E+08,
2460413.500000000, A.D. 2024-Apr-13 00:00:00.0000, -4.929630335046744E+09, 3.702093111553039E+09, -1.920682518412354E+08,
2460420.500000000, A.D. 2024-Apr-20 00:00:00.0000, -4.931302308274372E+09, 3.699659537352175E+09, -1.924905755423427E+08,
2460427.500000000, A.D. 2024-Apr-27 00:00:00.0000, -4.932973316772992E+09, 3.697225135541195E+09, -1.929128572510622E+08,
2460434.500000000, A.D. 2024-May-04 00:00:00.0000, -4.934643360189076E+09, 3.694789905009320E+09, -1.933350968600893E+08,
2460441.500000000, A.D. 2024-May-11 00:00:00.0000, -4.936312437851711E+09, 3.692353844543047E+09, -1.937572942931228E+08,
2460448.500000000, A.D. 2024-May-18 00:00:00.0000, -4.937980548843248E+09, 3.689916952906576E+09, -1.941794494959166E+08,
2460455.500000000, A.D. 2024-May-25 00:00:00.0000, -4.939647692090556E+09, 3.687479228833712E+09, -1.946015624329946E+08,
2460462.500000000, A.D. 2024-Jun-01 00:00:00.0000, -4.941313866417049E+09, 3.685040670874144E+09, -1.950236330999906E+08,
2460469.500000000, A.D. 2024-Jun-08 00:00:00.0000, -4.942979070309112E+09, 3.682601277071478E+09, -1.954456615758429E+08,
2460476.500000000, A.D. 2024-Jun-15 00:00:00.0000, -4.944643300997402E+09, 3.680161045018356E+09, -1.958676481066725E+08,
2460483.500000000, A.D. 2024-Jun-22 00:00:00.0000, -4.946306553858268E+09, 3.677719973464057E+09, -1.962895930328496E+08,
2460490.500000000, A.D. 2024-Jun-29 00:00:00.0000, -4.947968824256881E+09, 3.675278063653967E+09, -1.967114965131752E+08,
2460497.500000000, A.D. 2024-Jul-06 00:00:00.0000, -4.949630109187097E+09, 3.672835317929956E+09, -1.971333584905188E+08,
2460504.500000000, A.D. 2024-Jul-13 00:00:00.0000, -4.951290406758811E+09, 3.670391738415831E+09, -1.975551788467491E+08,
2460511.500000000, A.D. 2024-Jul-20 00:00:00.0000, -4.952949715518407E+09, 3.667947326936645E+09, -1.979769574708655E+08,
2460518.500000000, A.D. 2024-Jul-27 00:00:00.0000, -4.954608034258364E+09, 3.665502085212415E+09, -1.983986942585559E+08,
2460525.500000000, A.D. 2024-Aug-03 00:00:00.0000, -4.956265362043049E+09, 3.663056014951420E+09, -1.988203890989258E+08,
2460532.500000000, A.D. 2024-Aug-10 00:00:00.0000, -4.957921698284908E+09, 3.660609117838802E+09, -1.992420418641148E+08,
2460539.500000000, A.D. 2024-Aug-17 00:00:00.0000, -4.959577042823777E+09, 3.658161395442484E+09, -1.996636524045556E+08,
2460546.500000000, A.D. 2024-Aug-24 00:00:00.0000, -4.961231395981422E+09, 3.655712849014524E+09, -2.000852205544822E+08,
2460553.500000000, A.D. 2024-Aug-31 00:00:00.0000, -4.962884758475725E+09, 3.653263479126772E+09, -2.005067461635871E+08,
2460560.500000000, A.D. 2024-Sep-07 00:00:00.0000, -4.964537130829001E+09, 3.650813285267577E+09, -2.009282291782711E+08,
2460567.500000000, A.D. 2024-Sep-14 00:00:00.0000, -4.966188512185195E+09, 3.648362266395692E+09, -2.013496696991735E+08,
2460574.500000000, A.D. 2024-Sep-21 00:00:00.0000, -4.967838900564805E+09, 3.645910422864234E+09, -2.017710677953985E+08,
2460581.500000000, A.D. 2024-Sep-28 00:00:00.0000, -4.969488295045015E+09, 3.643457756487176E+09, -2.021924232946692E+08,
2460588.500000000, A.D. 2024-Oct-05 00:00:00.0000, -4.971136696195337E+09, 3.641004268750213E+09, -2.026137358860047E+08,
2460595.500000000, A.D. 2024-Oct-12 00:00:00.0000, -4.972784105129377E+09, 3.638549960146233E+09, -2.030350052584064E+08,
2460602.500000000, A.D. 2024-Oct-19 00:00:00.0000, -4.974430522923672E+09, 3.636094830364693E+09, -2.034562311371391E+08,
2460609.500000000, A.D. 2024-Oct-26 00:00:00.0000, -4.976075950435905E+09, 3.633638878533734E+09, -2.038774132801409E+08,
2460616.500000000, A.D. 2024-Nov-02 00:00:00.0000, -4.977720388265087E+09, 3.631182103366847E+09, -2.042985514702935E+08,
2460623.500000000, A.D. 2024-Nov-09 00:00:00.0000, -4.979363836756960E+09, 3.628724503235104E+09, -2.047196455106888E+08,
2460630.500000000, A.D. 2024-Nov-16 00:00:00.0000, -4.981006296028556E+09, 3.626266076165485E+09, -2.051406952251959E+08,
2460637.500000000, A.D. 2024-Nov-23 00:00:00.0000, -4.982647765964859E+09, 3.623806819715706E+09, -2.055617004726481E+08,
2460644.500000000, A.D. 2024-Nov-30 00:00:00.0000, -4.984288245979110E+09, 3.621346730683145E+09, -2.059826611971593E+08,
2460651.500000000, A.D. 2024-Dec-07 00:00:00.0000, -4.985927734117232E+09, 3.618885805068714E+09, -2.064035775185640E+08,
2460658.500000000, A.D. 2024-Dec-14 00:00:00.0000, -4.987566226194885E+09, 3.616424039519829E+09, -2.068244496996720E+08,
2460665.500000000, A.D. 2024-Dec-21 00:00:00.0000, -4.989203717285659E+09, 3.613961433011850E+09, -2.072452778789270E+08,
2460672.500000000, A.D. 2024-Dec-28 00:00:00.0000, -4.990840203587876E+09, 3.611497985800725E+09, -2.076660619917052E+08,
2460679.500000000, A.D. 2025-Jan-04 00:00:00.0000, -4.992475682072721E+09, 3.609033698023122E+09, -2.080868019240842E+08,
2460686.500000000, A.D. 2025-Jan-11 00:00:00.0000, -4.994110149734838E+09, 3.606568569603891E+09, -2.085074975961633E+08,
2460693.500000000, A.D. 2025-Jan-18 00:00:00.0000, -4.995743603362256E+09, 3.604102600552101E+09, -2.089281489656560E+08,
2460700.500000000, A.D. 2025-Jan-25 00:00:00.0000, -4.997376039581990E+09, 3.601635791171122E+09, -2.093487560126166E+08,
2460707.500000000, A.D. 2025-Feb-01 00:00:00.0000, -4.999007454991685E+09, 3.599168142152610E+09, -2.097693187248728E+08,
$$EOE